[{"name":"GSAT0225 (GALILEO 29)","line1":"1 59598U 24079A   26175.75913958 -.00000038  00000+0  00000+0 0  9996","line2":"2 59598  55.1240 100.8683 0001742 297.9493 254.8080  1.70474128 13441"},{"name":"GSAT0227 (GALILEO 30)","line1":"1 59600U 24079C   26174.45530327 -.00000033  00000+0  00000+0 0  9996","line2":"2 59600  55.1185 100.9033 0002419  58.0764 301.9236  1.70473918 13478"},{"name":"GSAT0232 (GALILEO 32)","line1":"1 61182U 24167A   26177.16213501  .00000062  00000+0  00000+0 0  9996","line2":"2 61182  55.1828 221.0673 0006275 229.7738 207.0709  1.70474496 11030"},{"name":"GSAT0226 (GALILEO 31)","line1":"1 61183U 24167B   26177.47940175  .00000064  00000+0  00000+0 0  9997","line2":"2 61183  55.1816 221.0657 0002937 230.4036 132.4929  1.70474505 11015"},{"name":"BEIDOU-3 M25","line1":"1 61186U 24168B   26176.52653398 -.00000106  00000+0  00000+0 0  9992","line2":"2 61186  54.4653 301.9524 0003118 299.1636  69.9171  1.86230340 11949"},{"name":"BEIDOU-3 M27","line1":"1 61187U 24168C   26177.65781937 -.00000100  00000+0  00000+0 0  9993","line2":"2 61187  54.4594 301.8961 0001371  48.4457 134.1335  1.86230428  9438"},{"name":"NAVSTAR 83 (USA 440)","line1":"1 62339U 24242A   26177.06783932 -.00000106  00000+0  00000+0 0  9994","line2":"2 62339  54.8454 333.8210 0017666   4.5395 177.0108  2.00572026 11434"},{"name":"QZS-6 (MICHIBIKI-6)","line1":"1 62876U 25023A   26176.60391804 -.00000223  00000+0  00000+0 0  9990","line2":"2 62876   0.0573 280.3752 0001985 187.0073 114.2719  1.00273214  5035"},{"name":"COSMOS 2584 [GLONASS-K2]","line1":"1 63130U 25042A   26176.11761292 -.00000068  00000+0  00000+0 0  9990","line2":"2 63130  65.0891  72.5324 0006504 227.6492 132.3305  2.13103928 10214"},{"name":"NAVSTAR 84 (USA 545)","line1":"1 64202U 25116A   26176.81205127 -.00000089  00000+0  00000+0 0  9993","line2":"2 64202  55.2403  30.7831 0008279 342.5010 197.3025  2.00575516  8048"},{"name":"COSMOS 2596 [GLONASS-K1]","line1":"1 65590U 25206B   26175.96646456 -.00000086  00000+0  00000+0 0  9990","line2":"2 65590  64.6296 314.7142 0011009 310.6805  49.5796  2.13100978  6081"},{"name":"GSAT0233 (GALILEO 33)","line1":"1 67160U 25302A   26175.09516034 -.00000035  00000+0  00000+0 0  9998","line2":"2 67160  54.3398 101.9339 0000823 209.8671 226.2605  1.70474189  3249"},{"name":"GSAT0234 (GALILEO 34)","line1":"1 67162U 25302C   26177.31099617 -.00000038  00000+0  00000+0 0  9993","line2":"2 67162  54.3424 101.8702 0002967 307.0359 229.1139  1.70474228  3337"},{"name":"NAVSTAR 85 (USA 581)","line1":"1 67588U 26017A   26177.17140900 -.00000068  00000+0  00000+0 0  9998","line2":"2 67588  55.0939  88.3946 0021485 258.6377 101.1236  2.00570994431797"},{"name":"NAVSTAR 86 (USA 585)","line1":"1 68791U 26087A   26173.65141046  .00000058  00000+0  00000+0 0  9991","line2":"2 68791  54.9627 207.5713 0020681 106.6591  76.9843  2.00570839   940"}]